NORAD_CAT_ID,OBJECT_NAME,OBJECT_TYPE,EPOCH,MEAN_MOTION,ECCENTRICITY,INCLINATION,RA_OF_ASC_NODE,ARG_OF_PERICENTER,MEAN_ANOMALY,BSTAR,MEAN_MOTION_DOT,MEAN_MOTION_DDOT,TLE_LINE0,TLE_LINE1,TLE_LINE2,SEMIMAJOR_AXIS,PERIOD,APOGEE,PERIGEE,DECAYED
53824.0,STARLINK-4757,PAYLOAD,2023-01-20 02:03:34,15.0883707,0.0001496999999999,53.2193,42.5461,107.6556,252.46,-0.00022484,-3.864e-05,0.0,0 STARLINK-4757,1 53824U 22114G   23020.08581219 -.00003864  00000-0 -22484-3 0  9999,2 53824  53.2193  42.5461 0001497 107.6556 252.4600 15.08837070 19491,6917.889,95.438,540.79,538.719,0.0
53824.0,STARLINK-4757,PAYLOAD,2023-01-20 08:25:06,15.08844181,0.00015,53.219,41.3597,103.2877,256.8283,-0.00016422,-2.901e-05,0.0,0 STARLINK-4757,1 53824U 22114G   23020.35076579 -.00002901  00000-0 -16422-3 0  9993,2 53824  53.2190  41.3597 0001500 103.2877 256.8283 15.08844181 19539,6917.868,95.437,540.77,538.695,0.0
53824.0,STARLINK-4757,PAYLOAD,2023-01-21 05:05:07,15.08829463,0.0001256,53.2198,37.4905,110.1164,249.9963,-6.4045e-05,-1.307e-05,0.0,0 STARLINK-4757,1 53824U 22114G   23021.21189157 -.00001307  00000-0 -64045-4 0  9990,2 53824  53.2198  37.4905 0001256 110.1164 249.9963 15.08829463 19668,6917.9130000000005,95.438,540.646,538.909,0.0
53824.0,STARLINK-4757,PAYLOAD,2023-01-21 08:15:52,15.08840085,0.000127,53.2193,36.8967,105.0753,255.0379,1.3049000000000002e-05,-8e-07,0.0,0 STARLINK-4757,1 53824U 22114G   23021.34436286 -.00000080  00000-0  13049-4 0  9996,2 53824  53.2193  36.8967 0001270 105.0753 255.0379 15.08840085 19681,6917.88,95.438,540.624,538.867,0.0
53824.0,STARLINK-4757,PAYLOAD,2023-01-22 17:38:59,15.08834133,0.0001376999999999,53.2206,30.6543,87.6001,272.5149,1.0329e-05,-1.24e-06,0.0,0 STARLINK-4757,1 53824U 22114G   23022.73541048 -.00000124  00000-0  10329-4 0  9990,2 53824  53.2206  30.6543 0001377  87.6001 272.5149 15.08834133 19896,6917.898,95.438,540.716,538.811,0.0
53824.0,STARLINK-4757,PAYLOAD,2023-01-23 06:22:05,15.08826355,0.0001133,53.2196,28.2732,89.5969,270.5153,4.1979e-05,3.8e-06,0.0,0 STARLINK-4757,1 53824U 22114G   23023.26533661  .00000380  00000-0  41979-4 0  9999,2 53824  53.2196  28.2732 0001133  89.5969 270.5153 15.08826355 19970,6917.922,95.438,540.571,539.003,0.0
53824.0,STARLINK-4757,PAYLOAD,2023-01-23 17:29:46,15.0883792,0.0001209,53.2203,26.1911,88.4838,271.6293,-1.2265e-05,-4.83e-06,0.0,0 STARLINK-4757,1 53824U 22114G   23023.72901176 -.00000483  00000-0 -12265-4 0  9992,2 53824  53.2203  26.1911 0001209  88.4838 271.6293 15.08837920 20049,6917.887,95.438,540.5880000000001,538.915,0.0
53824.0,STARLINK-4757,PAYLOAD,2023-01-24 06:12:50,15.08851577,0.0001145,53.2192,23.8111,96.6325,263.4798,-6.2576e-06,-3.87e-06,0.0,0 STARLINK-4757,1 53824U 22114G   23024.25892295 -.00000387  00000-0 -62576-5 0  9996,2 53824  53.2192  23.8111 0001145  96.6325 263.4798 15.08851577 20125,6917.845,95.437,540.502,538.918,0.0
53824.0,STARLINK-4757,PAYLOAD,2023-01-25 06:03:38,15.08828716,0.0001054999999999,53.2211,19.3523,100.438,259.6731,7.1269e-05,8.46e-06,0.0,0 STARLINK-4757,1 53824U 22114G   23025.25253458  .00000846  00000-0  71269-4 0  9995,2 53824  53.2211  19.3523 0001055 100.4380 259.6731 15.08828716 20278,6917.915,95.438,540.51,539.05,0.0
53824.0,STARLINK-4757,PAYLOAD,2023-01-25 09:14:24,15.08839061,0.0001154,53.2192,18.7565,101.4668,258.6454,6.341699999999999e-05,7.22e-06,0.0,0 STARLINK-4757,1 53824U 22114G   23025.38500791  .00000722  00000-0  63417-4 0  9993,2 53824  53.2192  18.7565 0001154 101.4668 258.6454 15.08839061 20293,6917.883000000001,95.438,540.547,538.95,0.0
53824.0,STARLINK-4757,PAYLOAD,2023-01-26 02:43:39,15.08838912,0.0001205,53.2196,15.4806,115.968,244.1437,-3.0283e-05,-7.699999999999999e-06,0.0,0 STARLINK-4757,1 53824U 22114G   23026.11365252 -.00000770  00000-0 -30283-4 0  9996,2 53824  53.2196  15.4806 0001205 115.9680 244.1437 15.08838912 20857,6917.884,95.438,540.582,538.915,0.0
53824.0,STARLINK-4757,PAYLOAD,2023-01-27 05:45:12,15.08843453,0.0001072999999999,53.2194,10.4306,100.6,259.5113,8.021e-05,9.89e-06,0.0,0 STARLINK-4757,1 53824U 22114G   23027.23972675  .00000989  00000-0  80210-4 0  9998,2 53824  53.2194  10.4306 0001073 100.6000 259.5113 15.08843453 20571,6917.87,95.437,540.477,538.993,0.0
53824.0,STARLINK-4757,PAYLOAD,2023-01-27 08:55:58,15.08844413,0.0001036,53.22,9.8356,99.0385,261.0725,9.3239e-05,1.197e-05,0.0,0 STARLINK-4757,1 53824U 22114G   23027.37220580  .00001197  00000-0  93239-4 0  9991,2 53824  53.2200   9.8356 0001036  99.0385 261.0725 15.08844413 21049,6917.866999999999,95.437,540.4490000000001,539.015,0.0
53824.0,STARLINK-4757,PAYLOAD,2023-01-28 05:36:00,15.08837597,9.64e-05,53.2198,5.9725,94.2583,265.8519,-1.737e-05,-5.64e-06,0.0,0 STARLINK-4757,1 53824U 22114G   23028.23333609 -.00000564  00000-0 -17370-4 0  9995,2 53824  53.2198   5.9725 0000964  94.2583 265.8519 15.08837597 20720,6917.888000000001,95.438,540.42,539.086,0.0
53824.0,STARLINK-4757,PAYLOAD,2023-01-28 07:11:23,15.08840746,9.93e-05,53.2204,5.6735,86.1942,273.9163,1.1028e-05,-1.12e-06,0.0,0 STARLINK-4757,1 53824U 22114G   23028.29957330 -.00000112  00000-0  11028-4 0  9996,2 53824  53.2204   5.6735 0000993  86.1942 273.9163 15.08840746 21183,6917.878,95.438,540.43,539.056,0.0
53824.0,STARLINK-4757,PAYLOAD,2023-01-28 16:43:42,15.08834943,0.000106,53.2196,3.8898,89.5403,270.5711,2.3524e-05,8.7e-07,0.0,0 STARLINK-4757,1 53824U 22114G   23028.69701669  .00000087  00000-0  23524-4 0  9996,2 53824  53.2196   3.8898 0001060  89.5403 270.5711 15.08834943 21249,6917.896,95.438,540.494,539.028,0.0
53824.0,STARLINK-4757,PAYLOAD,2023-01-29 07:02:09,15.08847216,0.0001115,53.2199,1.2144,104.3136,255.798,-3.1423e-05,-7.88e-06,0.0,0 STARLINK-4757,1 53824U 22114G   23029.29317085 -.00000788  00000-0 -31423-4 0  9995,2 53824  53.2199   1.2144 0001115 104.3136 255.7980 15.08847216 20887,6917.858,95.437,540.495,538.952,0.0
53824.0,STARLINK-4757,PAYLOAD,2023-01-30 06:52:56,15.08846569,0.0001087,53.2197,356.7528,92.2569,267.8547,6.8874e-05,8.09e-06,0.0,0 STARLINK-4757,1 53824U 22114G   23030.28676773  .00000809  00000-0  68874-4 0  9990,2 53824  53.2197 356.7528 0001087  92.2569 267.8547 15.08846569 21482,6917.86,95.437,540.477,538.973,0.0
53824.0,STARLINK-4757,PAYLOAD,2023-01-31 06:43:44,15.08844716,0.0001227,53.2194,352.2916,109.1078,251.0047,1.0655e-05,-1.18e-06,0.0,0 STARLINK-4757,1 53824U 22114G   23031.28037042 -.00000118  00000-0  10655-4 0  9999,2 53824  53.2194 352.2916 0001227 109.1078 251.0047 15.08844716 21189,6917.866,95.437,540.58,538.882,0.0
53824.0,STARLINK-4757,PAYLOAD,2023-01-31 21:02:12,15.08840582,0.0001322,53.2183,349.6152,108.3866,251.727,-5.3424e-05,-1.138e-05,0.0,0 STARLINK-4757,1 53824U 22114G   23031.87653526 -.00001138  00000-0 -53424-4 0  9990,2 53824  53.2183 349.6152 0001322 108.3866 251.7270 15.08840582 21723,6917.879,95.438,540.658,538.829,0.0
53824.0,STARLINK-4757,PAYLOAD,2023-02-01 06:34:30,15.08851919,0.0001389,53.2189,347.8302,105.4211,254.6935,2.9684e-05,1.85e-06,0.0,0 STARLINK-4757,1 53824U 22114G   23032.27396390  .00000185  00000-0  29684-4 0  9998,2 53824  53.2189 347.8302 0001389 105.4211 254.6935 15.08851919 21783,6917.844,95.437,540.67,538.748,0.0
53824.0,STARLINK-4757,PAYLOAD,2023-02-02 03:14:32,15.08840295,0.0001451,53.2189,343.9669,101.2143,258.9012,-3.0185e-05,-7.68e-06,0.0,0 STARLINK-4757,1 53824U 22114G   23033.13509463 -.00000768  00000-0 -30185-4 0  9998,2 53824  53.2189 343.9669 0001451 101.2143 258.9012 15.08840295 21467,6917.879,95.438,540.748,538.741,0.0
53824.0,STARLINK-4757,PAYLOAD,2023-02-02 06:25:18,15.08841766,0.000149,53.2188,343.3717,102.3859,257.73,-1.2387e-05,-4.85e-06,0.0,0 STARLINK-4757,1 53824U 22114G   23033.26757284 -.00000485  00000-0 -12387-4 0  9998,2 53824  53.2188 343.3717 0001490 102.3859 257.7300 15.08841766 21936,6917.875,95.437,540.771,538.709,0.0
53824.0,STARLINK-4757,PAYLOAD,2023-02-03 06:16:04,15.08846785,0.0001425,53.2187,338.9128,96.3489,263.7666,0.00010171,1.331e-05,0.0,0 STARLINK-4757,1 53824U 22114G   23034.26116496  .00001331  00000-0  10171-3 0  9990,2 53824  53.2187 338.9128 0001425  96.3489 263.7666 15.08846785 21635,6917.86,95.437,540.71,538.739,0.0
53824.0,STARLINK-4757,PAYLOAD,2023-02-03 18:59:10,15.08831371,0.0001726,53.218,336.5353,102.3574,257.7612,2.1801e-05,5.9e-07,0.0,0 STARLINK-4757,1 53824U 22114G   23034.79109706  .00000059  00000-0  21801-4 0  9993,2 53824  53.2180 336.5353 0001726 102.3574 257.7612 15.08831371 21717,6917.907,95.438,540.966,538.578,0.0
53824.0,STARLINK-4757,PAYLOAD,2023-02-04 06:06:52,15.08838764,0.0001354,53.2185,334.4522,90.7692,269.3455,1.4332e-05,-6e-07,0.0,0 STARLINK-4757,1 53824U 22114G   23035.25477634 -.00000060  00000-0  14332-4 0  9997,2 53824  53.2185 334.4522 0001354  90.7692 269.3455 15.08838764 22230,6917.884,95.438,540.686,538.812,0.0
53824.0,STARLINK-4757,PAYLOAD,2023-02-05 04:22:16,15.08844743,0.0001306,53.2186,330.2892,98.0269,262.0871,-3.6571e-05,-8.7e-06,0.0,0 STARLINK-4757,1 53824U 22114G   23036.18213497 -.00000870  00000-0 -36571-4 0  9994,2 53824  53.2186 330.2892 0001306  98.0269 262.0871 15.08844743 22374,6917.866,95.437,540.634,538.827,0.0
53824.0,STARLINK-4757,PAYLOAD,2023-02-06 04:13:04,15.08834095,0.0001313,53.2199,325.8285,79.3568,280.7572,4.1951e-05,3.8e-06,0.0,0 STARLINK-4757,1 53824U 22114G   23037.17574219  .00000380  00000-0  41951-4 0  9998,2 53824  53.2199 325.8285 0001313  79.3568 280.7572 15.08834095 22077,6917.898,95.438,540.672,538.855,0.0
53824.0,STARLINK-4757,PAYLOAD,2023-02-06 20:06:55,15.08841938,0.0001184,53.2185,322.8558,88.4219,271.6908,1.9383e-05,2.1e-07,0.0,0 STARLINK-4757,1 53824U 22114G   23037.83813851  .00000021  00000-0  19383-4 0  9995,2 53824  53.2185 322.8558 0001184  88.4219 271.6908 15.08841938 22629,6917.874,95.437,540.559,538.92,0.0
